TRANSPORTER-11 OBJECT A 
1 60468U 24149A   26068.74646182  .00010774  00000+0  36054-3 0  9993
2 60468  97.3780 149.0949 0003110 191.0010 169.1164 15.31141332 86830
STARLINK-34585          
1 64779U 25147AA  26068.75385864  .00020614  00000+0  70632-3 0  9993
2 64779  53.1590 242.2993 0001063  82.9782 277.1340 15.30193722 38711
